start=new Date('2023-03-08T00:00:00.000Z').valueOf();
sats=[{"NORAD_CAT_ID":"46383","OBJECT_ID":"2020-062BL","PERIOD":"95.592","TLE_LINE1":"1 46383U 20062BL  23066.83779863  .00016350  00000-0  11137-2 0  9992","OBJECT_NAME":"STARLINK-1770","ECCENTRICITY":"0.00012600","RCS_SIZE":"LARGE","EPHEMERIS_TYPE":"0","MEAN_ELEMENT_THEORY":"SGP4","ARG_OF_PERICENTER":"87.6982","MEAN_MOTION_DOT":"0.00016350","ELEMENT_SET_NO":"999","GP_ID":"227671502","APOAPSIS":"548.058","FILE":"3854072","MEAN_MOTION_DDOT":"0.0000000000000","CENTER_NAME":"EARTH","REV_AT_EPOCH":"13883","SITE":"AFETR","INCLINATION":"53.0505","SEMIMAJOR_AXIS":"6925.321","DECAY_DATE":null,"REF_FRAME":"TEME","CLASSIFICATION_TYPE":"U","MEAN_ANOMALY":"272.4151","TLE_LINE2":"2 46383  53.0505 265.0692 0001260  87.6982 272.4151 15.06409081138832","COUNTRY_CODE":"US","BSTAR":"0.00111370000000","PERIAPSIS":"546.313","OBJECT_TYPE":"PAYLOAD","RA_OF_ASC_NODE":"265.0692","EPOCH":"2023-03-07T20:06:25.801632","LAUNCH_DATE":"2020-09-03","TIME_SYSTEM":"UTC","MEAN_MOTION":"15.06409081"},{"DECAY_DATE":null,"SITE":"AFETR","INCLINATION":"53.0535","SEMIMAJOR_AXIS":"6925.305","RA_OF_ASC_NODE":"265.0475","OBJECT_TYPE":"PAYLOAD","LAUNCH_DATE":"2020-09-03","EPOCH":"2023-03-07T20:11:44.137248","MEAN_MOTION":"15.06414221","TIME_SYSTEM":"UTC","REF_FRAME":"TEME","MEAN_ANOMALY":"270.5423","CLASSIFICATION_TYPE":"U","TLE_LINE2":"2 46384  53.0535 265.0475 0001049  89.5686 270.5423 15.06414221138835","PERIAPSIS":"546.444","BSTAR":"0.00065466000000","COUNTRY_CODE":"US","EPHEMERIS_TYPE":"0","RCS_SIZE":"LARGE","MEAN_ELEMENT_THEORY":"SGP4","ARG_OF_PERICENTER":"89.5686","MEAN_MOTION_DOT":"0.00009487","NORAD_CAT_ID":"46384","PERIOD":"95.591","OBJECT_ID":"2020-062BM","ECCENTRICITY":"0.00010490","OBJECT_NAME":"STARLINK-1771","TLE_LINE1":"1 46384U 20062BM  23066.84148307  .00009487  00000-0  65466-3 0  9995","CENTER_NAME":"EARTH","MEAN_MOTION_DDOT":"0.0000000000000","REV_AT_EPOCH":"13883","ELEMENT_SET_NO":"999","GP_ID":"227672240","FILE":"3854072","APOAPSIS":"547.896"},{"ELEMENT_SET_NO":"999","GP_ID":"227670770","FILE":"3854072","APOAPSIS":"548.075","MEAN_MOTION_DDOT":"0.0000000000000","CENTER_NAME":"EARTH","REV_AT_EPOCH":"13401","NORAD_CAT_ID":"46532","OBJECT_ID":"2020-070A","PERIOD":"95.593","ECCENTRICITY":"0.00012110","TLE_LINE1":"1 46532U 20070A   23066.70880069  .00015038  00000-0  10265-2 0  9997","OBJECT_NAME":"STARLINK-1644","EPHEMERIS_TYPE":"0","RCS_SIZE":"LARGE","MEAN_ELEMENT_THEORY":"SGP4","ARG_OF_PERICENTER":"84.0718","MEAN_MOTION_DOT":"0.00015038","REF_FRAME":"TEME","MEAN_ANOMALY":"276.0409","CLASSIFICATION_TYPE":"U","TLE_LINE2":"2 46532  53.0512  65.6463 0001211  84.0718 276.0409 15.06392566134011","PERIAPSIS":"546.398","BSTAR":"0.00102650000000","COUNTRY_CODE":"US","RA_OF_ASC_NODE":"65.6463","OBJECT_TYPE":"PAYLOAD","EPOCH":"2023-03-07T17:00:40.379616","LAUNCH_DATE":"2020-10-06","MEAN_MOTION":"15.06392566","TIME_SYSTEM":"UTC","SITE":"AFETR","INCLINATION":"53.0512","SEMIMAJOR_AXIS":"6925.371","DECAY_DATE":null},{"REF_FRAME":"TEME","CLASSIFICATION_TYPE":"U","MEAN_ANOMALY":"263.3997","TLE_LINE2":"2 46533  53.0535  65.5942 0001470  96.7159 263.3997 15.06386160134018","COUNTRY_CODE":"US","BSTAR":"0.00027260000000","PERIAPSIS":"546.238","OBJECT_TYPE":"PAYLOAD","RA_OF_ASC_NODE":"65.5942","EPOCH":"2023-03-07T17:16:35.780448","LAUNCH_DATE":"2020-10-06","TIME_SYSTEM":"UTC","MEAN_MOTION":"15.06386160","SITE":"AFETR","INCLINATION":"53.0535","SEMIMAJOR_AXIS":"6925.391","DECAY_DATE":null,"ELEMENT_SET_NO":"999","GP_ID":"227672015","FILE":"3854072","APOAPSIS":"548.274","MEAN_MOTION_DDOT":"0.0000000000000","CENTER_NAME":"EARTH","REV_AT_EPOCH":"13401","NORAD_CAT_ID":"46533","OBJECT_ID":"2020-070B","PERIOD":"95.593","TLE_LINE1":"1 46533U 20070B   23066.71985857  .00003780  00000-0  27260-3 0  9995","OBJECT_NAME":"STARLINK-1648","ECCENTRICITY":"0.00014700","RCS_SIZE":"LARGE","EPHEMERIS_TYPE":"0","MEAN_ELEMENT_THEORY":"SGP4","ARG_OF_PERICENTER":"96.7159","MEAN_MOTION_DOT":"0.00003780"},{"ARG_OF_PERICENTER":"99.6136","MEAN_MOTION_DOT":"0.00004343","RCS_SIZE":"LARGE","EPHEMERIS_TYPE":"0","MEAN_ELEMENT_THEORY":"SGP4","TLE_LINE1":"1 46534U 20070C   23066.70142611  .00004343  00000-0  31028-3 0  9991","OBJECT_NAME":"STARLINK-1659","ECCENTRICITY":"0.00010850","NORAD_CAT_ID":"46534","OBJECT_ID":"2020-070C","PERIOD":"95.592","CENTER_NAME":"EARTH","MEAN_MOTION_DDOT":"0.0000000000000","REV_AT_EPOCH":"13401","GP_ID":"227671754","FILE":"3854072","APOAPSIS":"547.970","ELEMENT_SET_NO":"999","DECAY_DATE":null,"INCLINATION":"53.0522","SEMIMAJOR_AXIS":"6925.354","SITE":"AFETR","MEAN_MOTION":"15.06398287","TIME_SYSTEM":"UTC","OBJECT_TYPE":"PAYLOAD","RA_OF_ASC_NODE":"65.6802","LAUNCH_DATE":"2020-10-06","EPOCH":"2023-03-07T16:50:03.215904","TLE_LINE2":"2 46534  53.0522  65.6802 0001085  99.6136 260.4976 15.06398287134018","COUNTRY_CODE":"US","BSTAR":"0.00031028000000","PERIAPSIS":"546.467","REF_FRAME":"TEME","CLASSIFICATION_TYPE":"U","MEAN_ANOMALY":"260.4976"},{"ELEMENT_SET_NO":"999","GP_ID":"227671021","APOAPSIS":"548.052","FILE":"3854072","MEAN_MOTION_DDOT":"0.0000000000000","CENTER_NAME":"EARTH","REV_AT_EPOCH":"13400","NORAD_CAT_ID":"46535","OBJECT_ID":"2020-070D","PERIOD":"95.592","OBJECT_NAME":"STARLINK-1663","TLE_LINE1":"1 46535U 20070D   23066.69036548  .00011565  00000-0  79391-3 0  9990","ECCENTRICITY":"0.00012260","RCS_SIZE":"LARGE","EPHEMERIS_TYPE":"0","MEAN_ELEMENT_THEORY":"SGP4","ARG_OF_PERICENTER":"96.3989","MEAN_MOTION_DOT":"0.00011565","REF_FRAME":"TEME","CLASSIFICATION_TYPE":"U","MEAN_ANOMALY":"263.7140","TLE_LINE2":"2 46535  53.0541  65.7272 0001226  96.3989 263.7140 15.06403299134007","BSTAR":"0.00079391000000","COUNTRY_CODE":"US","PERIAPSIS":"546.354","OBJECT_TYPE":"PAYLOAD","RA_OF_ASC_NODE":"65.7272","LAUNCH_DATE":"2020-10-06","EPOCH":"2023-03-07T16:34:07.577472","TIME_SYSTEM":"UTC","MEAN_MOTION":"15.06403299","SITE":"AFETR","INCLINATION":"53.0541","SEMIMAJOR_AXIS":"6925.338","DECAY_DATE":null},{"SITE":"AFETR","INCLINATION":"53.0531","SEMIMAJOR_AXIS":"6925.380","DECAY_DATE":null,"REF_FRAME":"TEME","MEAN_ANOMALY":"267.1093","CLASSIFICATION_TYPE":"U","TLE_LINE2":"2 46537  53.0531  65.6126 0000544  92.9958 267.1093 15.06389761134018","PERIAPSIS":"546.868","BSTAR":"0.00006137100000","COUNTRY_CODE":"US","RA_OF_ASC_NODE":"65.6126","OBJECT_TYPE":"PAYLOAD","LAUNCH_DATE":"2020-10-06","EPOCH":"2023-03-07T17:11:17.004192","TIME_SYSTEM":"UTC","MEAN_MOTION":"15.06389761","NORAD_CAT_ID":"46537","PERIOD":"95.593","OBJECT_ID":"2020-070F","ECCENTRICITY":"0.00005440","TLE_LINE1":"1 46537U 20070F   23066.71616903  .00000633  00000-0  61371-4 0  9998","OBJECT_NAME":"STARLINK-1672","EPHEMERIS_TYPE":"0","RCS_SIZE":"LARGE","MEAN_ELEMENT_THEORY":"SGP4","ARG_OF_PERICENTER":"92.9958","MEAN_MOTION_DOT":"0.00000633","ELEMENT_SET_NO":"999","GP_ID":"227671268","APOAPSIS":"547.622","FILE":"3854072","CENTER_NAME":"EARTH","MEAN_MOTION_DDOT":"0.0000000000000","REV_AT_EPOCH":"13401"},{"TLE_LINE2":"2 46538  53.0525  65.7117 0001816  82.6401 277.4794 15.06390502134001","PERIAPSIS":"545.985","BSTAR":"0.00067414000000","COUNTRY_CODE":"US","REF_FRAME":"TEME","MEAN_ANOMALY":"277.4794","CLASSIFICATION_TYPE":"U","TIME_SYSTEM":"UTC","MEAN_MOTION":"15.06390502","RA_OF_ASC_NODE":"65.7117","OBJECT_TYPE":"PAYLOAD","LAUNCH_DATE":"2020-10-06","EPOCH":"2023-03-07T16:39:26.468640","INCLINATION":"53.0525","SEMIMAJOR_AXIS":"6925.378","SITE":"AFETR","DECAY_DATE":null,"GP_ID":"227671516","APOAPSIS":"548.500","FILE":"3854072","ELEMENT_SET_NO":"999","CENTER_NAME":"EARTH","MEAN_MOTION_DDOT":"0.0000000000000","REV_AT_EPOCH":"13400","ECCENTRICITY":"0.00018160","TLE_LINE1":"1 46538U 20070G   23066.69405635  .00009771  00000-0  67414-3 0  9999","OBJECT_NAME":"STARLINK-1678","NORAD_CAT_ID":"46538","PERIOD":"95.593","OBJECT_ID":"2020-070G","ARG_OF_PERICENTER":"82.6401","MEAN_MOTION_DOT":"0.00009771","EPHEMERIS_TYPE":"0","RCS_SIZE":"LARGE","MEAN_ELEMENT_THEORY":"SGP4"},{"INCLINATION":"53.0552","SEMIMAJOR_AXIS":"6925.334","SITE":"AFETR","DECAY_DATE":null,"TLE_LINE2":"2 46541  53.0552  44.6074 0001845  87.0096 273.1104 15.06404727134322","BSTAR":"0.00174680000000","COUNTRY_CODE":"US","PERIAPSIS":"545.921","REF_FRAME":"TEME","CLASSIFICATION_TYPE":"U","MEAN_ANOMALY":"273.1104","TIME_SYSTEM":"UTC","MEAN_MOTION":"15.06404727","OBJECT_TYPE":"PAYLOAD","RA_OF_ASC_NODE":"44.6074","LAUNCH_DATE":"2020-10-06","EPOCH":"2023-03-07T22:32:24.284544","OBJECT_NAME":"STARLINK-1687","TLE_LINE1":"1 46541U 20070K   23066.93916996  .00025836  00000-0  17468-2 0  9990","ECCENTRICITY":"0.00018450","NORAD_CAT_ID":"46541","PERIOD":"95.592","OBJECT_ID":"2020-070K","ARG_OF_PERICENTER":"87.0096","MEAN_MOTION_DOT":"0.00025836","RCS_SIZE":"LARGE","EPHEMERIS_TYPE":"0","MEAN_ELEMENT_THEORY":"SGP4","GP_ID":"227672254","FILE":"3854072","APOAPSIS":"548.477","ELEMENT_SET_NO":"999","MEAN_MOTION_DDOT":"0.0000000000000","CENTER_NAME":"EARTH","REV_AT_EPOCH":"13432"},{"NORAD_CAT_ID":"46542","OBJECT_ID":"2020-070L","PERIOD":"95.591","ECCENTRICITY":"0.00015920","OBJECT_NAME":"STARLINK-1692","TLE_LINE1":"1 46542U 20070L   23066.47657759  .00010331  00000-0  71123-3 0  9992","EPHEMERIS_TYPE":"0","RCS_SIZE":"LARGE","MEAN_ELEMENT_THEORY":"SGP4","ARG_OF_PERICENTER":"109.4220","MEAN_MOTION_DOT":"0.00010331","ELEMENT_SET_NO":"999","GP_ID":"227670522","APOAPSIS":"548.280","FILE":"3854072","CENTER_NAME":"EARTH","MEAN_MOTION_DDOT":"0.0000000000000","REV_AT_EPOCH":"13397","SITE":"AFETR","INCLINATION":"53.0521","SEMIMAJOR_AXIS":"6925.312","DECAY_DATE":null,"REF_FRAME":"TEME","MEAN_ANOMALY":"250.6941","CLASSIFICATION_TYPE":"U","TLE_LINE2":"2 46542  53.0521  66.6861 0001592 109.4220 250.6941 15.06411889133970","PERIAPSIS":"546.075","BSTAR":"0.00071123000000","COUNTRY_CODE":"US","RA_OF_ASC_NODE":"66.6861","OBJECT_TYPE":"PAYLOAD","LAUNCH_DATE":"2020-10-06","EPOCH":"2023-03-07T11:26:16.303776","MEAN_MOTION":"15.06411889","TIME_SYSTEM":"UTC"}];
